ORBCOMM FM33            
1 25983U 99065D   25197.43881732  .00000399  00000+0  17027-3 0  9996
2 25983  45.0269 219.8817 0009798 222.9589 137.0496 14.40041084340352
ORBCOMM FM36            
1 25984U 99065E   25197.44201985  .00000583  00000+0  23681-3 0  9992
2 25984  45.0403 312.2519 0002649 127.7062 232.4027 14.38172112339224
ORBCOMM FM35            
1 25985U 99065F   25196.67805184  .00000563  00000+0  23499-3 0  9993
2 25985  45.0408 321.1320 0005184 186.3044 173.7740 14.37138035338882
ORBCOMM FM34            
1 25986U 99065G   25197.47780963  .00000508  00000+0  21680-3 0  9999
2 25986  45.0401 317.8106 0004550 152.3490 207.7601 14.37158374339157
ORBCOMM FM38            
1 33060U 08031A   25196.67658237  .00001049  00000+0  16004-3 0  9998
2 33060  48.4391 179.4686 0004464 168.8643 191.2372 14.81395897918972
ORBCOMM FM41            
1 33061U 08031B   25197.23013178  .00000951  00000+0  14893-3 0  9996
2 33061  48.4425 184.7093 0003579 155.1608 218.4940 14.80979437918978
ORBCOMM FM29            
1 33062U 08031C   25197.22751002  .00000944  00000+0  14779-3 0  9996
2 33062  48.4377 192.4961 0005236 153.1320 301.3142 14.81083916918847
ORBCOMM FM39            
1 33063U 08031D   25196.79642176  .00000633  00000+0  11169-3 0  9994
2 33063  48.4391 219.1375 0005993 119.9917 240.1593 14.79627939918039
